ONEWEB-0427             
1 50499U 21132AG  25335.16244705  .00000076  00000+0  15899-3 0  9990
2 50499  87.9190  14.7620 0001536  97.6641 262.4665 13.18685782195512
ONEWEB-0429             
1 50500U 21132AH  25335.14924503  .00000090  00000+0  19479-3 0  9996
2 50500  87.9195  14.7968 0001926  93.4949 266.6403 13.18684900195486
ONEWEB-0430             
1 50501U 21132AJ  25335.13770046  .00000121  00000+0  27439-3 0  9997
2 50501  87.9197  14.7946 0001789  88.0652 272.0685 13.18685601195520
ONEWEB-0432             
1 50502U 21132AK  25335.16953935  .00000075  00000+0  15831-3 0  9992
2 50502  87.9188  14.7609 0000892  87.5693 272.5541 13.18675720195482
ONEWEB-0440             
1 50503U 21132AL  25335.15749124  .00000086  00000+0  18448-3 0  9994
2 50503  87.9194  14.7806 0002181 101.6270 258.5107 13.18684015195479
ONEWEB-0450             
1 50504U 21132AM  25335.15103841  .00000175  00000+0  41191-3 0  9995
2 50504  87.9191  14.8044 0001987  90.2139 269.9221 13.18687026195504
ONEWEB-0410             
1 51622U 22012A   25335.25168148  .00000112  00000+0  25621-3 0  9998
2 51622  87.9133  45.2018 0001385 155.8026 204.3171 13.17647833187639
ONEWEB-0411             
1 51623U 22012B   25335.24706154 -.00000496  00000+0 -14572-2 0  9992
2 51623  87.8814  75.7252 0001538  83.7665 276.3638 13.10375273183363
